start=new Date('2023-07-02T00:00:00.000Z').valueOf();
sats=[{"GP_ID":"234652581","FILE":"3946857","DECAY_DATE":null,"CENTER_NAME":"EARTH","PERIAPSIS":"515.890","EPOCH":"2023-07-01T07:35:53.736288","RA_OF_ASC_NODE":"30.8067","INCLINATION":"53.0535","TLE_LINE2":"2 44966  53.0535  30.8067 0001635  68.1690 291.9477 15.16306245192421","APOAPSIS":"518.145","OBJECT_NAME":"STARLINK-1088","SITE":"AFETR","PERIOD":"94.968","SEMIMAJOR_AXIS":"6895.153","TLE_LINE1":"1 44966U 20001BE  23182.31659417  .00022482  00000-0  11588-2 0  9997","CLASSIFICATION_TYPE":"U","MEAN_MOTION_DOT":"0.00022482","COUNTRY_CODE":"US","MEAN_MOTION":"15.16306245","LAUNCH_DATE":"2020-01-07","MEAN_ANOMALY":"291.9477","RCS_SIZE":"LARGE","EPHEMERIS_TYPE":"0","ELEMENT_SET_NO":"999","MEAN_ELEMENT_THEORY":"SGP4","MEAN_MOTION_DDOT":"0.0000000000000","REV_AT_EPOCH":"19242","BSTAR":"0.00115880000000","OBJECT_ID":"2020-001BE","ECCENTRICITY":"0.00016350","REF_FRAME":"TEME","TIME_SYSTEM":"UTC","ARG_OF_PERICENTER":"68.1690","OBJECT_TYPE":"PAYLOAD","NORAD_CAT_ID":"44966"},{"SEMIMAJOR_AXIS":"6925.369","TLE_LINE1":"1 44967U 20001BF  23182.03355296  .00004699  00000-0  33422-3 0  9997","CLASSIFICATION_TYPE":"U","SITE":"AFETR","PERIOD":"95.593","MEAN_MOTION":"15.06393359","LAUNCH_DATE":"2020-01-07","MEAN_ANOMALY":"269.1526","MEAN_MOTION_DOT":"0.00004699","COUNTRY_CODE":"US","FILE":"3946578","GP_ID":"234645581","DECAY_DATE":null,"CENTER_NAME":"EARTH","PERIAPSIS":"546.369","EPOCH":"2023-07-01T00:48:18.975744","OBJECT_NAME":"STARLINK-1089","RA_OF_ASC_NODE":"37.9386","INCLINATION":"53.0551","TLE_LINE2":"2 44967  53.0551  37.9386 0001249  90.9606 269.1526 15.06393359192303","APOAPSIS":"548.099","ARG_OF_PERICENTER":"90.9606","OBJECT_TYPE":"PAYLOAD","OBJECT_ID":"2020-001BF","ECCENTRICITY":"0.00012490","REF_FRAME":"TEME","TIME_SYSTEM":"UTC","NORAD_CAT_ID":"44967","EPHEMERIS_TYPE":"0","ELEMENT_SET_NO":"999","RCS_SIZE":"LARGE","MEAN_MOTION_DDOT":"0.0000000000000","REV_AT_EPOCH":"19230","BSTAR":"0.00033422000000","MEAN_ELEMENT_THEORY":"SGP4"},{"CLASSIFICATION_TYPE":"U","SEMIMAJOR_AXIS":"6925.353","TLE_LINE1":"1 44968U 20001BG  23182.02986613  .00005580  00000-0  39323-3 0  9996","PERIOD":"95.592","SITE":"AFETR","MEAN_ANOMALY":"273.0026","MEAN_MOTION":"15.06398672","LAUNCH_DATE":"2020-01-07","COUNTRY_CODE":"US","MEAN_MOTION_DOT":"0.00005580","PERIAPSIS":"546.687","EPOCH":"2023-07-01T00:43:00.433632","DECAY_DATE":null,"GP_ID":"234645589","FILE":"3946578","CENTER_NAME":"EARTH","OBJECT_NAME":"STARLINK-1090","TLE_LINE2":"2 44968  53.0551  37.9506 0000766  87.1050 273.0026 15.06398672192304","APOAPSIS":"547.748","RA_OF_ASC_NODE":"37.9506","INCLINATION":"53.0551","ARG_OF_PERICENTER":"87.1050","OBJECT_TYPE":"PAYLOAD","TIME_SYSTEM":"UTC","OBJECT_ID":"2020-001BG","ECCENTRICITY":"0.00007660","REF_FRAME":"TEME","NORAD_CAT_ID":"44968","EPHEMERIS_TYPE":"0","ELEMENT_SET_NO":"999","RCS_SIZE":"LARGE","REV_AT_EPOCH":"19230","BSTAR":"0.00039323000000","MEAN_MOTION_DDOT":"0.0000000000000","MEAN_ELEMENT_THEORY":"SGP4"},{"CENTER_NAME":"EARTH","GP_ID":"234645595","FILE":"3946588","DECAY_DATE":null,"EPOCH":"2023-07-01T00:32:23.592192","PERIAPSIS":"546.459","RA_OF_ASC_NODE":"37.9816","INCLINATION":"53.0549","APOAPSIS":"547.959","TLE_LINE2":"2 44969  53.0549  37.9816 0001083 100.2370 259.8741 15.06401356192299","OBJECT_NAME":"STARLINK-1092","SITE":"AFETR","PERIOD":"95.592","SEMIMAJOR_AXIS":"6925.344","TLE_LINE1":"1 44969U 20001BH  23182.02249528  .00006136  00000-0  43041-3 0  9994","CLASSIFICATION_TYPE":"U","MEAN_MOTION_DOT":"0.00006136","COUNTRY_CODE":"US","LAUNCH_DATE":"2020-01-07","MEAN_MOTION":"15.06401356","MEAN_ANOMALY":"259.8741","RCS_SIZE":"LARGE","ELEMENT_SET_NO":"999","EPHEMERIS_TYPE":"0","MEAN_ELEMENT_THEORY":"SGP4","MEAN_MOTION_DDOT":"0.0000000000000","BSTAR":"0.00043041000000","REV_AT_EPOCH":"19229","REF_FRAME":"TEME","OBJECT_ID":"2020-001BH","ECCENTRICITY":"0.00010830","TIME_SYSTEM":"UTC","OBJECT_TYPE":"PAYLOAD","ARG_OF_PERICENTER":"100.2370","NORAD_CAT_ID":"44969"},{"MEAN_MOTION_DDOT":"0.0000000000000","BSTAR":"0.00108450000000","REV_AT_EPOCH":"19239","MEAN_ELEMENT_THEORY":"SGP4","ELEMENT_SET_NO":"999","EPHEMERIS_TYPE":"0","RCS_SIZE":"LARGE","NORAD_CAT_ID":"44970","OBJECT_TYPE":"PAYLOAD","ARG_OF_PERICENTER":"83.4673","REF_FRAME":"TEME","OBJECT_ID":"2020-001BJ","ECCENTRICITY":"0.00012760","TIME_SYSTEM":"UTC","OBJECT_NAME":"STARLINK-1093","RA_OF_ASC_NODE":"34.8073","INCLINATION":"53.0549","APOAPSIS":"548.086","TLE_LINE2":"2 44970  53.0549  34.8073 0001276  83.4673 276.6461 15.06403638192396","CENTER_NAME":"EARTH","DECAY_DATE":null,"GP_ID":"234659070","FILE":"3947145","EPOCH":"2023-07-01T17:31:28.538688","PERIAPSIS":"546.319","LAUNCH_DATE":"2020-01-07","MEAN_MOTION":"15.06403638","MEAN_ANOMALY":"276.6461","MEAN_MOTION_DOT":"0.00015910","COUNTRY_CODE":"US","SEMIMAJOR_AXIS":"6925.337","TLE_LINE1":"1 44970U 20001BJ  23182.73019142  .00015910  00000-0  10845-2 0  9996","CLASSIFICATION_TYPE":"U","SITE":"AFETR","PERIOD":"95.592"},{"REF_FRAME":"TEME","ECCENTRICITY":"0.00009900","OBJECT_ID":"2020-001BL","TIME_SYSTEM":"UTC","OBJECT_TYPE":"PAYLOAD","ARG_OF_PERICENTER":"86.8393","NORAD_CAT_ID":"44972","RCS_SIZE":"LARGE","ELEMENT_SET_NO":"999","EPHEMERIS_TYPE":"0","MEAN_ELEMENT_THEORY":"SGP4","MEAN_MOTION_DDOT":"0.0000000000000","BSTAR":"-0.00004737700000","REV_AT_EPOCH":"19234","SITE":"AFETR","PERIOD":"95.592","SEMIMAJOR_AXIS":"6925.353","TLE_LINE1":"1 44972U 20001BL  23182.30261680 -.00000987  00000-0 -47377-4 0  9999","CLASSIFICATION_TYPE":"U","MEAN_MOTION_DOT":"-0.00000987","COUNTRY_CODE":"US","LAUNCH_DATE":"2020-01-07","MEAN_MOTION":"15.06398554","MEAN_ANOMALY":"273.2709","CENTER_NAME":"EARTH","DECAY_DATE":null,"GP_ID":"234652110","FILE":"3946859","EPOCH":"2023-07-01T07:15:46.091520","PERIAPSIS":"546.532","RA_OF_ASC_NODE":"36.7225","INCLINATION":"53.0554","APOAPSIS":"547.904","TLE_LINE2":"2 44972  53.0554  36.7225 0000990  86.8393 273.2709 15.06398554192345","OBJECT_NAME":"STARLINK-1107"},{"ELEMENT_SET_NO":"999","EPHEMERIS_TYPE":"0","RCS_SIZE":"LARGE","BSTAR":"0.00046767000000","REV_AT_EPOCH":"19229","MEAN_MOTION_DDOT":"0.0000000000000","MEAN_ELEMENT_THEORY":"SGP4","OBJECT_TYPE":"PAYLOAD","ARG_OF_PERICENTER":"75.5729","TIME_SYSTEM":"UTC","REF_FRAME":"TEME","ECCENTRICITY":"0.00009260","OBJECT_ID":"2020-001BM","NORAD_CAT_ID":"44973","EPOCH":"2023-07-01T00:21:46.798272","PERIAPSIS":"546.562","CENTER_NAME":"EARTH","GP_ID":"234646144","DECAY_DATE":null,"FILE":"3946624","OBJECT_NAME":"STARLINK-1115","APOAPSIS":"547.845","TLE_LINE2":"2 44973  53.0540  38.0215 0000926  75.5729 284.5363 15.06403354192292","INCLINATION":"53.0540","RA_OF_ASC_NODE":"38.0215","CLASSIFICATION_TYPE":"U","SEMIMAJOR_AXIS":"6925.338","TLE_LINE1":"1 44973U 20001BM  23182.01512498  .00006692  00000-0  46767-3 0  9992","PERIOD":"95.592","SITE":"AFETR","MEAN_ANOMALY":"284.5363","LAUNCH_DATE":"2020-01-07","MEAN_MOTION":"15.06403354","COUNTRY_CODE":"US","MEAN_MOTION_DOT":"0.00006692"},{"SITE":"AFETR","PERIOD":"95.590","TLE_LINE1":"1 45044U 20006A   23172.83344010  .00021941  00000-0  14862-2 0  9993","SEMIMAJOR_AXIS":"6925.264","CLASSIFICATION_TYPE":"U","MEAN_MOTION_DOT":"0.00021941","COUNTRY_CODE":"US","LAUNCH_DATE":"2020-01-29","MEAN_MOTION":"15.06427571","MEAN_ANOMALY":"293.0280","CENTER_NAME":"EARTH","GP_ID":"234485105","DECAY_DATE":null,"FILE":"3940263","EPOCH":"2023-06-21T20:00:09.224640","PERIAPSIS":"546.269","RA_OF_ASC_NODE":"39.2399","INCLINATION":"53.0536","APOAPSIS":"547.989","TLE_LINE2":"2 45044  53.0536  39.2399 0001242  67.0840 293.0280 15.06427571187244","OBJECT_NAME":"STARLINK-1132","REF_FRAME":"TEME","OBJECT_ID":"2020-006A","ECCENTRICITY":"0.00012420","TIME_SYSTEM":"UTC","OBJECT_TYPE":"PAYLOAD","ARG_OF_PERICENTER":"67.0840","NORAD_CAT_ID":"45044","RCS_SIZE":"LARGE","ELEMENT_SET_NO":"999","EPHEMERIS_TYPE":"0","MEAN_ELEMENT_THEORY":"SGP4","MEAN_MOTION_DDOT":"0.0000000000000","BSTAR":"0.00148620000000","REV_AT_EPOCH":"18724"},{"EPHEMERIS_TYPE":"0","ELEMENT_SET_NO":"999","RCS_SIZE":"LARGE","REV_AT_EPOCH":"18724","BSTAR":"0.00069488000000","MEAN_MOTION_DDOT":"0.0000000000000","MEAN_ELEMENT_THEORY":"SGP4","ARG_OF_PERICENTER":"74.6674","OBJECT_TYPE":"PAYLOAD","TIME_SYSTEM":"UTC","OBJECT_ID":"2020-006B","ECCENTRICITY":"0.00010450","REF_FRAME":"TEME","NORAD_CAT_ID":"45045","PERIAPSIS":"546.461","EPOCH":"2023-06-21T10:06:58.795776","DECAY_DATE":null,"GP_ID":"234485354","FILE":"3940263","CENTER_NAME":"EARTH","OBJECT_NAME":"STARLINK-1120","TLE_LINE2":"2 45045  53.0541  61.0745 0001045  74.6674 285.4430 15.06409353187249","APOAPSIS":"547.909","INCLINATION":"53.0541","RA_OF_ASC_NODE":"61.0745","CLASSIFICATION_TYPE":"U","SEMIMAJOR_AXIS":"6925.320","TLE_LINE1":"1 45045U 20006B   23172.42151384  .00010086  00000-0  69488-3 0  9992","PERIOD":"95.592","SITE":"AFETR","MEAN_ANOMALY":"285.4430","MEAN_MOTION":"15.06409353","LAUNCH_DATE":"2020-01-29","COUNTRY_CODE":"US","MEAN_MOTION_DOT":"0.00010086"},{"OBJECT_NAME":"STARLINK-1131","RA_OF_ASC_NODE":"59.2772","INCLINATION":"53.0553","TLE_LINE2":"2 45047  53.0553  59.2772 0001278  84.9177 275.1958 15.06442669186969","APOAPSIS":"547.968","GP_ID":"234484608","DECAY_DATE":null,"FILE":"3940263","CENTER_NAME":"EARTH","PERIAPSIS":"546.198","EPOCH":"2023-06-21T19:46:53.448672","MEAN_MOTION":"15.06442669","LAUNCH_DATE":"2020-01-29","MEAN_ANOMALY":"275.1958","MEAN_MOTION_DOT":"0.00020429","COUNTRY_CODE":"US","SEMIMAJOR_AXIS":"6925.218","TLE_LINE1":"1 45047U 20006D   23172.82422973  .00020429  00000-0  13848-2 0  9993","CLASSIFICATION_TYPE":"U","SITE":"AFETR","PERIOD":"95.589","MEAN_MOTION_DDOT":"0.0000000000000","REV_AT_EPOCH":"18696","BSTAR":"0.00138480000000","MEAN_ELEMENT_THEORY":"SGP4","EPHEMERIS_TYPE":"0","ELEMENT_SET_NO":"999","RCS_SIZE":"LARGE","NORAD_CAT_ID":"45047","ARG_OF_PERICENTER":"84.9177","OBJECT_TYPE":"PAYLOAD","OBJECT_ID":"2020-006D","ECCENTRICITY":"0.00012780","REF_FRAME":"TEME","TIME_SYSTEM":"UTC"}];
